STARLINK-35752          
1 66275U 25247L   26151.19154984  .00027828  00000+0  94805-3 0  9997
2 66275  53.1584 168.3317 0001113  29.6831 330.4233 15.30203631 33668
STARLINK-35742          
1 66276U 25247M   26151.05143852  .00024008  00000+0  81978-3 0  9999
2 66276  53.1584 168.8780 0001324  95.7132 264.4019 15.30211887 33693
STARLINK-35708          
1 66277U 25247N   26151.20538201  .00034968  00000+0  10411-2 0  9992
2 66277  53.1576 167.0045 0001008  80.3302 279.7815 15.34404041 33736
STARLINK-35713          
1 66278U 25247P   26151.04777519  .00035126  00000+0  10467-2 0  9990
2 66278  53.1585 167.4374 0001719 116.2621 243.8558 15.34376119 33716
STARLINK-35724          
1 66279U 25247Q   26151.19533661  .00122018  00000+0  36416-2 0  9994
2 66279  53.1577 168.3533 0003093 121.1574 238.9732 15.33719024 33662
STARLINK-35726          
1 66280U 25247R   26151.05407126  .00028107  00000+0  83971-3 0  9990
2 66280  53.1584 167.4817 0001259  74.5611 285.5530 15.34406849 33665
STARLINK-35727          
1 66281U 25247S   26151.20210256  .00022070  00000+0  75518-3 0  9995
2 66281  53.1568 168.3978 0001293  28.4812 331.6259 15.30195002 33668
STARLINK-35776          
1 66282U 25247T   26151.19787896  .00017755  00000+0  61030-3 0  9991
2 66282  53.1567 168.3686 0000948  54.0773 306.0316 15.30192262 33666
STARLINK-35774          
1 66283U 25247U   26150.47519344  .00027343  00000+0  93155-3 0  9990
2 66283  53.1574 171.6800 0001313  82.6528 277.4622 15.30212871 33550
STARLINK-35830          
1 66284U 25247V   26151.18943794  .00028173  00000+0  95964-3 0  9992
2 66284  53.1583 168.3152 0000822  51.7892 308.3183 15.30203601 33668
STARLINK-35819          
1 66285U 25247W   26150.46569728  .00026003  00000+0  88686-3 0  9997
2 66285  53.1579 171.6199 0001185  82.9651 277.1485 15.30205102 33558
STARLINK-35783          
1 66286U 25247X   26151.04931100  .00023967  00000+0  81848-3 0  9999
2 66286  53.1584 168.8634 0001386  81.9002 278.2156 15.30209684 33645
STARLINK-34884          
1 66287U 25247Y   26151.07721459  .00030832  00000+0  91954-3 0  9995
2 66287  53.1574 167.6216 0001878  78.7855 281.3359 15.34412176 33662
STARLINK-34896          
1 66288U 25247Z   26151.20327675  .00030624  00000+0  91369-3 0  9992
2 66288  53.1567 166.9849 0001108  81.0841 279.0287 15.34403514 33689
STARLINK-35802          
1 66289U 25247AA  26151.19696316  .00020509  00000+0  61659-3 0  9992
2 66289  53.1573 166.9433 0000848  64.9139 295.1951 15.34393805 33684
STARLINK-35799          
1 66290U 25247AB  26151.19275767  .00031501  00000+0  93937-3 0  9995
2 66290  53.1575 166.9176 0000845  41.4951 318.6115 15.34405704 33732
STARLINK-35800          
1 66291U 25247AC  26151.18223589  .00035010  00000+0  10420-2 0  9994
2 66291  53.1580 166.8452 0001206 126.9649 233.1464 15.34413947 33725
STARLINK-35798          
1 66292U 25247AD  26151.18644595  .00032739  00000+0  97588-3 0  9995
2 66292  53.1571 166.8792 0000997  34.6104 325.4963 15.34399369 33674
SEMI-1L                 
1 66294U 25248B   26150.57906071  .00005321  00000+0  24954-3 0  9994
2 66294  45.3998 215.9125 0003962 320.6003  39.4595 15.20804447 31831
LEMUR-2-AFFIE-WAUWIE    
1 66295U 25248C   26151.17602771  .00025128  00000+0  94743-3 0  9992
2 66295  45.3869 207.1185 0009775 339.9024  20.1478 15.26659454 31998
BANDWAGON-4 OBJECT D    
1 66296U 25248D   26151.21332648  .00009019  00000+0  40632-3 0  9990
2 66296  45.4020 211.4966 0006111 318.7162  41.3262 15.21444451 31948
SEMI-1N                 
1 66297U 25248E   26151.17907161  .00006236  00000+0  27573-3 0  9991
2 66297  45.4053 209.6379 0011640 303.6765  56.3012 15.22539151 31961
SEMI-1P                 
1 66298U 25248F   26151.17077580  .00004778  00000+0  22499-3 0  9996
2 66298  45.3811 211.1033 0014063 293.9549  65.9865 15.20809120 31945
FGN-100-D2              
1 66299U 25248G   26150.54643110  .00004779  00000+0  22853-3 0  9990
2 66299  45.3995 215.6891 0006348 301.2695  58.7569 15.20323367 31835
ICEYE-X65               
1 66300U 25248H   26151.16668980  .00028787  00000+0  18666-2 0  9995
2 66300  45.4031 223.6506 0006293 291.8353 323.0680 15.07669741  5855
ICEYE-X66               
1 66301U 25248J   26151.22082839  .00005326  00000+0  34765-3 0  9999
2 66301  45.4007 222.9151 0006237 288.4880  71.5324 15.08924487 32944
ICEYE-X67               
1 66302U 25248K   26151.17869601  .00005329  00000+0  34798-3 0  9993
2 66302  45.4042 222.6931 0007580 292.3622  67.6456 15.08903683 32955
STARCLOUD-1             
1 66303U 25248L   26151.15030826  .00006294  00000+0  29021-3 0  9996
2 66303  45.3988 211.7966 0006655 302.2898  57.7343 15.21107913 31949
BANDWAGON-4 OBJECT M    
1 66304U 25248M   26151.18452010  .00022699  00000+0  84437-3 0  9992
2 66304  45.4185 205.6253 0012425 322.5577  37.4446 15.27134161 30738
BANDWAGON-4 OBJECT N    
1 66305U 25248N   26151.17434403  .00023402  00000+0  86650-3 0  9990
2 66305  45.4170 205.5615 0012808 316.0489  43.9381 15.27266583 29876
