OBJECT_NAME,OBJECT_ID,EPOCH,MEAN_MOTION,ECCENTRICITY,INCLINATION,RA_OF_ASC_NODE,ARG_OF_PERICENTER,MEAN_ANOMALY,EPHEMERIS_TYPE,CLASSIFICATION_TYPE,NORAD_CAT_ID,ELEMENT_SET_NO,REV_AT_EPOCH,BSTAR,MEAN_MOTION_DOT,MEAN_MOTION_DDOT
STARLINK-35752,2025-247L,2026-05-31T04:35:49.906176,15.30203631,.0001113,53.1584,168.3317,29.6831,330.4233,0,U,66275,999,3366,.94805E-3,.27828E-3,0
STARLINK-35742,2025-247M,2026-05-31T01:14:04.288128,15.30211887,.0001324,53.1584,168.8780,95.7132,264.4019,0,U,66276,999,3369,.81978E-3,.24008E-3,0
STARLINK-35708,2025-247N,2026-05-31T04:55:45.005664,15.34404041,.0001008,53.1576,167.0045,80.3302,279.7815,0,U,66277,999,3373,.10411E-2,.34968E-3,0
STARLINK-35713,2025-247P,2026-05-31T01:08:47.776416,15.34376119,.0001719,53.1585,167.4374,116.2621,243.8558,0,U,66278,999,3371,.10467E-2,.35126E-3,0
STARLINK-35724,2025-247Q,2026-05-31T04:41:17.083104,15.33719024,.0003093,53.1577,168.3533,121.1574,238.9732,0,U,66279,999,3366,.36416E-2,.122018E-2,0
STARLINK-35726,2025-247R,2026-05-31T01:17:51.756864,15.34406849,.0001259,53.1584,167.4817,74.5611,285.5530,0,U,66280,999,3366,.83971E-3,.28107E-3,0
STARLINK-35727,2025-247S,2026-05-31T04:51:01.661184,15.30195002,.0001293,53.1568,168.3978,28.4812,331.6259,0,U,66281,999,3366,.75518E-3,.2207E-3,0
STARLINK-35776,2025-247T,2026-05-31T04:44:56.742144,15.30192262,.0000948,53.1567,168.3686,54.0773,306.0316,0,U,66282,999,3366,.6103E-3,.17755E-3,0
STARLINK-35774,2025-247U,2026-05-30T11:24:16.713216,15.30212871,.00013132,53.1574,171.6800,82.6528,277.4622,0,U,66283,999,3355,.9315456E-3,.27343E-3,0
STARLINK-35830,2025-247V,2026-05-31T04:32:47.438016,15.30203601,.0000822,53.1583,168.3152,51.7892,308.3183,0,U,66284,999,3366,.95964E-3,.28173E-3,0
STARLINK-35819,2025-247W,2026-05-30T11:10:36.244992,15.30205102,.00011855,53.1579,171.6199,82.9651,277.1485,0,U,66285,999,3355,.8868582E-3,.26003E-3,0
STARLINK-35783,2025-247X,2026-05-31T01:11:00.470400,15.30209684,.0001386,53.1584,168.8634,81.9002,278.2156,0,U,66286,999,3364,.81848E-3,.23967E-3,0
STARLINK-34884,2025-247Y,2026-05-31T01:51:11.340576,15.34412176,.0001878,53.1574,167.6216,78.7855,281.3359,0,U,66287,999,3366,.91954E-3,.30832E-3,0
STARLINK-34896,2025-247Z,2026-05-31T04:52:43.111200,15.34403514,.0001108,53.1567,166.9849,81.0841,279.0287,0,U,66288,999,3368,.91369E-3,.30624E-3,0
STARLINK-35802,2025-247AA,2026-05-31T04:43:37.617024,15.34393805,.0000848,53.1573,166.9433,64.9139,295.1951,0,U,66289,999,3368,.61659E-3,.20509E-3,0
STARLINK-35799,2025-247AB,2026-05-31T04:37:34.262688,15.34405704,.0000845,53.1575,166.9176,41.4951,318.6115,0,U,66290,999,3373,.93937E-3,.31501E-3,0
STARLINK-35800,2025-247AC,2026-05-31T04:22:25.180896,15.34413947,.0001206,53.1580,166.8452,126.9649,233.1464,0,U,66291,999,3372,.1042E-2,.3501E-3,0
STARLINK-35798,2025-247AD,2026-05-31T04:28:28.930080,15.34399369,.0000997,53.1571,166.8792,34.6104,325.4963,0,U,66292,999,3367,.97588E-3,.32739E-3,0
SEMI-1L,2025-248B,2026-05-30T13:53:50.845344,15.20804447,.0003962,45.3998,215.9125,320.6003,39.4595,0,U,66294,999,3183,.24954E-3,.5321E-4,0
LEMUR-2-AFFIE-WAUWIE,2025-248C,2026-05-31T04:13:28.794144,15.26659454,.0009775,45.3869,207.1185,339.9024,20.1478,0,U,66295,999,3199,.94743E-3,.25128E-3,0
BANDWAGON-4 OBJECT D,2025-248D,2026-05-31T05:07:11.407872,15.21444451,.0006111,45.4020,211.4966,318.7162,41.3262,0,U,66296,999,3194,.40632E-3,.9019E-4,0
SEMI-1N,2025-248E,2026-05-31T04:17:51.787104,15.22539151,.001164,45.4053,209.6379,303.6765,56.3012,0,U,66297,999,3196,.27573E-3,.6236E-4,0
SEMI-1P,2025-248F,2026-05-31T04:05:55.029120,15.20809120,.0014063,45.3811,211.1033,293.9549,65.9865,0,U,66298,999,3194,.22499E-3,.4778E-4,0
FGN-100-D2,2025-248G,2026-05-30T13:06:51.647040,15.20323367,.0006348,45.3995,215.6891,301.2695,58.7569,0,U,66299,999,3183,.22853E-3,.4779E-4,0
ICEYE-X65,2025-248H,2026-05-31T04:00:01.998720,15.07669741,.0006293,45.4031,223.6506,291.8353,323.0680,0,U,66300,999,585,.18666E-2,.28787E-3,0
ICEYE-X66,2025-248J,2026-05-31T05:17:59.572896,15.08924487,.0006237,45.4007,222.9151,288.4880,71.5324,0,U,66301,999,3294,.34765E-3,.5326E-4,0
ICEYE-X67,2025-248K,2026-05-31T04:17:19.335264,15.08903683,.000758,45.4042,222.6931,292.3622,67.6456,0,U,66302,999,3295,.34798E-3,.5329E-4,0
STARCLOUD-1,2025-248L,2026-05-31T03:36:26.633664,15.21107913,.0006655,45.3988,211.7966,302.2898,57.7343,0,U,66303,999,3194,.29021E-3,.6294E-4,0
BANDWAGON-4 OBJECT M,2025-248M,2026-05-31T04:25:42.536640,15.27134161,.0012425,45.4185,205.6253,322.5577,37.4446,0,U,66304,999,3073,.84437E-3,.22699E-3,0
BANDWAGON-4 OBJECT N,2025-248N,2026-05-31T04:11:03.324192,15.27266583,.0012808,45.4170,205.5615,316.0489,43.9381,0,U,66305,999,2987,.8665E-3,.23402E-3,0
